[{"OBJECT_NAME":"YAOGAN-21","OBJECT_ID":"2014-053A","EPOCH":"2026-03-09T23:50:42.268992","MEAN_MOTION":15.2493211,"ECCENTRICITY":0.00100966,"INCLINATION":97.1617,"RA_OF_ASC_NODE":113.5215,"ARG_OF_PERICENTER":86.0219,"MEAN_ANOMALY":274.2173,"EPHEMERIS_TYPE":0,"CLASSIFICATION_TYPE":"U","NORAD_CAT_ID":40143,"ELEMENT_SET_NO":999,"REV_AT_EPOCH":63983,"BSTAR":0.00033036554,"MEAN_MOTION_DOT":8.172e-5,"MEAN_MOTION_DDOT":0},{"OBJECT_NAME":"SCS-01 L","OBJECT_ID":"2025-100L","EPOCH":"2026-03-09T23:34:47.606016","MEAN_MOTION":15.20947264,"ECCENTRICITY":0.00097838,"INCLINATION":97.3734,"RA_OF_ASC_NODE":144.0559,"ARG_OF_PERICENTER":283.1902,"MEAN_ANOMALY":76.8242,"EPHEMERIS_TYPE":0,"CLASSIFICATION_TYPE":"U","NORAD_CAT_ID":63992,"ELEMENT_SET_NO":999,"REV_AT_EPOCH":4553,"BSTAR":0.00095526864,"MEAN_MOTION_DOT":0.0002115,"MEAN_MOTION_DDOT":0}]
